{"fetched_at":"2026-07-08T17:59:25.198Z","source":"https://celestrak.org/NORAD/elements/gp.php?GROUP=oneweb&FORMAT=JSON","constellation":"oneweb","records":[{"OBJECT_NAME":"ONEWEB-0349","OBJECT_ID":"2021-090C","EPOCH":"2026-07-08T12:22:29.099712","CLASSIFICATION_TYPE":"U","MEAN_MOTION":13.20774169,"ECCENTRICITY":0.0002113,"INCLINATION":87.9189,"RA_OF_ASC_NODE":270.1915,"ARG_OF_PERICENTER":98.8545,"MEAN_ANOMALY":261.2827,"EPHEMERIS_TYPE":0,"NORAD_CAT_ID":49281,"ELEMENT_SET_NO":999,"REV_AT_EPOCH":23264,"BSTAR":0.000004481,"MEAN_MOTION_DOT":1.5e-7,"MEAN_MOTION_DDOT":0},{"OBJECT_NAME":"ONEWEB-0353","OBJECT_ID":"2021-090D","EPOCH":"2026-07-08T12:34:06.435840","CLASSIFICATION_TYPE":"U","MEAN_MOTION":13.14502674,"ECCENTRICITY":0.0001905,"INCLINATION":87.8974,"RA_OF_ASC_NODE":285.4538,"ARG_OF_PERICENTER":106.8569,"MEAN_ANOMALY":253.277,"EPHEMERIS_TYPE":0,"NORAD_CAT_ID":49282,"ELEMENT_SET_NO":999,"REV_AT_EPOCH":23038,"BSTAR":-0.00045549,"MEAN_MOTION_DOT":-0.00000156,"MEAN_MOTION_DDOT":0},{"OBJECT_NAME":"ONEWEB-0356","OBJECT_ID":"2021-090E","EPOCH":"2026-07-08T12:20:04.369344","CLASSIFICATION_TYPE":"U","MEAN_MOTION":13.20770404,"ECCENTRICITY":0.0001418,"INCLINATION":87.9193,"RA_OF_ASC_NODE":270.1851,"ARG_OF_PERICENTER":83.9356,"MEAN_ANOMALY":276.1939,"EPHEMERIS_TYPE":0,"NORAD_CAT_ID":49283,"ELEMENT_SET_NO":999,"REV_AT_EPOCH":23264,"BSTAR":0.00015024,"MEAN_MOTION_DOT":7.4e-7,"MEAN_MOTION_DDOT":0},{"OBJECT_NAME":"ONEWEB-0358","OBJECT_ID":"2021-090F","EPOCH":"2026-07-08T11:22:53.992992","CLASSIFICATION_TYPE":"U","MEAN_MOTION":13.2077833,"ECCENTRICITY":0.0001967,"INCLINATION":87.9192,"RA_OF_ASC_NODE":270.2008,"ARG_OF_PERICENTER":93.4627,"MEAN_ANOMALY":266.6731,"EPHEMERIS_TYPE":0,"NORAD_CAT_ID":49284,"ELEMENT_SET_NO":999,"REV_AT_EPOCH":23336,"BSTAR":-0.000094349,"MEAN_MOTION_DOT":-2.5e-7,"MEAN_MOTION_DDOT":0},{"OBJECT_NAME":"ONEWEB-0359","OBJECT_ID":"2021-090G","EPOCH":"2026-07-08T11:09:45.623232","CLASSIFICATION_TYPE":"U","MEAN_MOTION":13.20770264,"ECCENTRICITY":0.000221,"INCLINATION":87.9192,"RA_OF_ASC_NODE":270.1948,"ARG_OF_PERICENTER":92.6464,"MEAN_ANOMALY":267.4922,"EPHEMERIS_TYPE":0,"NORAD_CAT_ID":49285,"ELEMENT_SET_NO":999,"REV_AT_EPOCH":23334,"BSTAR":0.00016396,"MEAN_MOTION_DOT":8e-7,"MEAN_MOTION_DDOT":0},{"OBJECT_NAME":"ONEWEB-0360","OBJECT_ID":"2021-090H","EPOCH":"2026-07-08T10:55:14.939328","CLASSIFICATION_TYPE":"U","MEAN_MOTION":13.20771521,"ECCENTRICITY":0.0002183,"INCLINATION":87.9191,"RA_OF_ASC_NODE":270.2031,"ARG_OF_PERICENTER":98.8178,"MEAN_ANOMALY":261.3202,"EPHEMERIS_TYPE":0,"NORAD_CAT_ID":49286,"ELEMENT_SET_NO":999,"REV_AT_EPOCH":23265,"BSTAR":0.000062674,"MEAN_MOTION_DOT":3.8e-7,"MEAN_MOTION_DDOT":0},{"OBJECT_NAME":"ONEWEB-0361","OBJECT_ID":"2021-090J","EPOCH":"2026-07-08T12:17:39.442848","CLASSIFICATION_TYPE":"U","MEAN_MOTION":13.20772908,"ECCENTRICITY":0.0002091,"INCLINATION":87.9193,"RA_OF_ASC_NODE":270.1902,"ARG_OF_PERICENTER":95.1081,"MEAN_ANOMALY":265.0291,"EPHEMERIS_TYPE":0,"NORAD_CAT_ID":49287,"ELEMENT_SET_NO":999,"REV_AT_EPOCH":23311,"BSTAR":0.00013285,"MEAN_MOTION_DOT":6.7e-7,"MEAN_MOTION_DDOT":0},{"OBJECT_NAME":"ONEWEB-0362","OBJECT_ID":"2021-090K","EPOCH":"2026-07-08T06:06:11.692800","CLASSIFICATION_TYPE":"U","MEAN_MOTION":13.19726026,"ECCENTRICITY":0.000222,"INCLINATION":87.9182,"RA_OF_ASC_NODE":300.7819,"ARG_OF_PERICENTER":103.4494,"MEAN_ANOMALY":256.6887,"EPHEMERIS_TYPE":0,"NORAD_CAT_ID":49288,"ELEMENT_SET_NO":999,"REV_AT_EPOCH":22969,"BSTAR":0.00017319,"MEAN_MOTION_DOT":8.2e-7,"MEAN_MOTION_DDOT":0},{"OBJECT_NAME":"ONEWEB-0363","OBJECT_ID":"2021-090L","EPOCH":"2026-07-08T10:50:23.609760","CLASSIFICATION_TYPE":"U","MEAN_MOTION":13.20772331,"ECCENTRICITY":0.000187,"INCLINATION":87.9192,"RA_OF_ASC_NODE":270.2025,"ARG_OF_PERICENTER":92.7333,"MEAN_ANOMALY":267.4014,"EPHEMERIS_TYPE":0,"NORAD_CAT_ID":49289,"ELEMENT_SET_NO":999,"REV_AT_EPOCH":23311,"BSTAR":0.00022475,"MEAN_MOTION_DOT":0.00000104,"MEAN_MOTION_DDOT":0},{"OBJECT_NAME":"ONEWEB-0364","OBJECT_ID":"2021-090M","EPOCH":"2026-07-08T11:46:07.656096","CLASSIFICATION_TYPE":"U","MEAN_MOTION":13.20769431,"ECCENTRICITY":0.0002078,"INCLINATION":87.9188,"RA_OF_ASC_NODE":270.2021,"ARG_OF_PERICENTER":100.2477,"MEAN_ANOMALY":259.8891,"EPHEMERIS_TYPE":0,"NORAD_CAT_ID":49290,"ELEMENT_SET_NO":999,"REV_AT_EPOCH":23425,"BSTAR":-0.00019529,"MEAN_MOTION_DOT":-6.6e-7,"MEAN_MOTION_DDOT":0},{"OBJECT_NAME":"ONEWEB-0365","OBJECT_ID":"2021-090N","EPOCH":"2026-07-08T06:19:50.427840","CLASSIFICATION_TYPE":"U","MEAN_MOTION":13.19726231,"ECCENTRICITY":0.0002022,"INCLINATION":87.9191,"RA_OF_ASC_NODE":300.7703,"ARG_OF_PERICENTER":102.5427,"MEAN_ANOMALY":257.5932,"EPHEMERIS_TYPE":0,"NORAD_CAT_ID":49291,"ELEMENT_SET_NO":999,"REV_AT_EPOCH":22920,"BSTAR":0.00021372,"MEAN_MOTION_DOT":9.9e-7,"MEAN_MOTION_DDOT":0},{"OBJECT_NAME":"ONEWEB-0366","OBJECT_ID":"2021-090P","EPOCH":"2026-07-08T05:11:06.396000","CLASSIFICATION_TYPE":"U","MEAN_MOTION":13.14502047,"ECCENTRICITY":0.0002015,"INCLINATION":87.8971,"RA_OF_ASC_NODE":285.5162,"ARG_OF_PERICENTER":99.2487,"MEAN_ANOMALY":260.887,"EPHEMERIS_TYPE":0,"NORAD_CAT_ID":49292,"ELEMENT_SET_NO":999,"REV_AT_EPOCH":23032,"BSTAR":-0.00042035,"MEAN_MOTION_DOT":-0.00000143,"MEAN_MOTION_DDOT":0},{"OBJECT_NAME":"ONEWEB-0367","OBJECT_ID":"2021-090Q","EPOCH":"2026-07-08T12:38:16.244160","CLASSIFICATION_TYPE":"U","MEAN_MOTION":13.20773512,"ECCENTRICITY":0.0002177,"INCLINATION":87.9191,"RA_OF_ASC_NODE":270.1889,"ARG_OF_PERICENTER":103.5802,"MEAN_ANOMALY":256.5574,"EPHEMERIS_TYPE":0,"NORAD_CAT_ID":49293,"ELEMENT_SET_NO":999,"REV_AT_EPOCH":23264,"BSTAR":0.00011516,"MEAN_MOTION_DOT":6e-7,"MEAN_MOTION_DDOT":0},{"OBJECT_NAME":"ONEWEB-0368","OBJECT_ID":"2021-090R","EPOCH":"2026-07-08T12:00:42.258240","CLASSIFICATION_TYPE":"U","MEAN_MOTION":13.20771473,"ECCENTRICITY":0.0001412,"INCLINATION":87.9179,"RA_OF_ASC_NODE":270.2017,"ARG_OF_PERICENTER":111.3369,"MEAN_ANOMALY":248.7916,"EPHEMERIS_TYPE":0,"NORAD_CAT_ID":49294,"ELEMENT_SET_NO":999,"REV_AT_EPOCH":23379,"BSTAR":0.00010286,"MEAN_MOTION_DOT":5.5e-7,"MEAN_MOTION_DDOT":0},{"OBJECT_NAME":"ONEWEB-0369","OBJECT_ID":"2021-090S","EPOCH":"2026-07-08T06:13:01.119072","CLASSIFICATION_TYPE":"U","MEAN_MOTION":13.19726122,"ECCENTRICITY":0.0001935,"INCLINATION":87.9184,"RA_OF_ASC_NODE":300.7771,"ARG_OF_PERICENTER":102.5253,"MEAN_ANOMALY":257.6096,"EPHEMERIS_TYPE":0,"NORAD_CAT_ID":49295,"ELEMENT_SET_NO":999,"REV_AT_EPOCH":22919,"BSTAR":0.00013733,"MEAN_MOTION_DOT":6.8e-7,"MEAN_MOTION_DDOT":0},{"OBJECT_NAME":"ONEWEB-0370","OBJECT_ID":"2021-090T","EPOCH":"2026-07-08T03:46:09.538176","CLASSIFICATION_TYPE":"U","MEAN_MOTION":13.20772147,"ECCENTRICITY":0.0002364,"INCLINATION":87.9191,"RA_OF_ASC_NODE":270.2615,"ARG_OF_PERICENTER":97.8533,"MEAN_ANOMALY":262.2869,"EPHEMERIS_TYPE":0,"NORAD_CAT_ID":49296,"ELEMENT_SET_NO":999,"REV_AT_EPOCH":23263,"BSTAR":0.0001648,"MEAN_MOTION_DOT":8e-7,"MEAN_MOTION_DDOT":0}]}
