ONEWEB-0349             
1 49281U 21090C   26189.51561458  .00000015  00000+0  44810-5 0  9994
2 49281  87.9189 270.1915 0002113  98.8545 261.2827 13.20774169232644
ONEWEB-0353             
1 49282U 21090D   26189.52368560 -.00000156  00000+0 -45549-3 0  9991
2 49282  87.8974 285.4538 0001905 106.8569 253.2770 13.14502674230380
ONEWEB-0356             
1 49283U 21090E   26189.51393946  .00000074  00000+0  15024-3 0  9999
2 49283  87.9193 270.1851 0001418  83.9356 276.1939 13.20770404232649
ONEWEB-0358             
1 49284U 21090F   26189.47423603 -.00000025  00000+0 -94349-4 0  9995
2 49284  87.9192 270.2008 0001967  93.4627 266.6731 13.20778330233360
ONEWEB-0359             
1 49285U 21090G   26189.46511138  .00000080  00000+0  16396-3 0  9990
2 49285  87.9192 270.1948 0002210  92.6464 267.4922 13.20770264233342
ONEWEB-0360             
1 49286U 21090H   26189.45503402  .00000038  00000+0  62674-4 0  9999
2 49286  87.9191 270.2031 0002183  98.8178 261.3202 13.20771521232659
ONEWEB-0361             
1 49287U 21090J   26189.51226207  .00000067  00000+0  13285-3 0  9997
2 49287  87.9193 270.1902 0002091  95.1081 265.0291 13.20772908233110
ONEWEB-0362             
1 49288U 21090K   26189.25430200  .00000082  00000+0  17319-3 0  9998
2 49288  87.9182 300.7819 0002220 103.4494 256.6887 13.19726026229694
ONEWEB-0363             
1 49289U 21090L   26189.45166215  .00000104  00000+0  22475-3 0  9997
2 49289  87.9192 270.2025 0001870  92.7333 267.4014 13.20772331233114
ONEWEB-0364             
1 49290U 21090M   26189.49036639 -.00000066  00000+0 -19529-3 0  9994
2 49290  87.9188 270.2021 0002078 100.2477 259.8891 13.20769431234253
ONEWEB-0365             
1 49291U 21090N   26189.26377810  .00000099  00000+0  21372-3 0  9992
2 49291  87.9191 300.7703 0002022 102.5427 257.5932 13.19726231229202
ONEWEB-0366             
1 49292U 21090P   26189.21604625 -.00000143  00000+0 -42035-3 0  9996
2 49292  87.8971 285.5162 0002015  99.2487 260.8870 13.14502047230322
ONEWEB-0367             
1 49293U 21090Q   26189.52657690  .00000060  00000+0  11516-3 0  9997
2 49293  87.9191 270.1889 0002177 103.5802 256.5574 13.20773512232647
ONEWEB-0368             
1 49294U 21090R   26189.50048910  .00000055  00000+0  10286-3 0  9992
2 49294  87.9179 270.2017 0001412 111.3369 248.7916 13.20771473233798
ONEWEB-0369             
1 49295U 21090S   26189.25904073  .00000068  00000+0  13733-3 0  9990
2 49295  87.9184 300.7771 0001935 102.5253 257.6096 13.19726122229191
ONEWEB-0370             
1 49296U 21090T   26189.15705484  .00000080  00000+0  16480-3 0  9991
2 49296  87.9191 270.2615 0002364  97.8533 262.2869 13.20772147232635
